{
  "type": "FeatureCollection",
  "features": [
    {
      "type": "Feature",
      "geometry": {
        "type": "Point",
        "coordinates": [
          145.93265719,
          -38.16483276
        ]
      },
      "properties": {
        "average_wait_time": 312.8741760253906,
        "color": "#e74c3c",
        "connectivity_score": 38.05714416503906,
        "coverage_score": 20.0,
        "frequency_score": 33.0,
        "id": "1-vic:rail:WGL",
        "mode_id": 1,
        "mode_name": "Regional Train",
        "name": "Warragul Railway Station",
        "nearby_stops": [],
        "reliability_score": 71.42857360839844,
        "route_ids": [
          "aus:vic:vic-01-BDE:",
          "aus:vic:vic-01-TRN:"
        ]
      }
    },
    {
      "type": "Feature",
      "geometry": {
        "type": "Point",
        "coordinates": [
          144.65063148,
          -37.72926127
        ]
      },
      "properties": {
        "average_wait_time": 307.62030029296875,
        "color": "#f1c40f",
        "connectivity_score": 47.35714340209961,
        "coverage_score": 30.0,
        "frequency_score": 47.5,
        "id": "1-vic:rail:RBK",
        "mode_id": 1,
        "mode_name": "Regional Train",
        "name": "Rockbank Railway Station ",
        "nearby_stops": [],
        "reliability_score": 71.42857360839844,
        "route_ids": [
          "aus:vic:vic-01-MBY:",
          "aus:vic:vic-01-BAT:",
          "aus:vic:vic-01-ART:"
        ]
      }
    },
    {
      "type": "Feature",
      "geometry": {
        "type": "Point",
        "coordinates": [
          144.52589012,
          -37.35879859
        ]
      },
      "properties": {
        "average_wait_time": 314.3755187988281,
        "color": "#e74c3c",
        "connectivity_score": 39.157142639160156,
        "coverage_score": 30.0,
        "frequency_score": 27.0,
        "id": "1-vic:rail:WNO",
        "mode_id": 1,
        "mode_name": "Regional Train",
        "name": "Woodend Railway Station",
        "nearby_stops": [],
        "reliability_score": 71.42857360839844,
        "route_ids": [
          "aus:vic:vic-01-BGO:",
          "aus:vic:vic-01-ECH:",
          "aus:vic:vic-01-SWL:"
        ]
      }
    },
    {
      "type": "Feature",
      "geometry": {
        "type": "Point",
        "coordinates": [
          144.69448757,
          -37.83215468
        ]
      },
      "properties": {
        "average_wait_time": 306.19598388671875,
        "color": "#f1c40f",
        "connectivity_score": 42.157142639160156,
        "coverage_score": 10.0,
        "frequency_score": 52.0,
        "id": "1-vic:rail:TNT",
        "mode_id": 1,
        "mode_name": "Regional Train",
        "name": "Tarneit Railway Station",
        "nearby_stops": [],
        "reliability_score": 71.42857360839844,
        "route_ids": [
          "aus:vic:vic-01-GEL:"
        ]
      }
    },
    {
      "type": "Feature",
      "geometry": {
        "type": "Point",
        "coordinates": [
          145.24063556,
          -36.61314794
        ]
      },
      "properties": {
        "average_wait_time": 403.21002197265625,
        "color": "#e74c3c",
        "connectivity_score": 25.557144165039062,
        "coverage_score": 10.0,
        "frequency_score": 10.5,
        "id": "1-vic:rail:MST",
        "mode_id": 1,
        "mode_name": "Regional Train",
        "name": "Murchison East Railway Station",
        "nearby_stops": [],
        "reliability_score": 71.42857360839844,
        "route_ids": [
          "aus:vic:vic-01-SNH:"
        ]
      }
    },
    {
      "type": "Feature",
      "geometry": {
        "type": "Point",
        "coordinates": [
          146.39677567,
          -38.23674592
        ]
      },
      "properties": {
        "average_wait_time": 315.2064514160156,
        "color": "#e74c3c",
        "connectivity_score": 36.257144927978516,
        "coverage_score": 20.0,
        "frequency_score": 28.5,
        "id": "1-vic:rail:MWL",
        "mode_id": 1,
        "mode_name": "Regional Train",
        "name": "Morwell Railway Station",
        "nearby_stops": [],
        "reliability_score": 71.42857360839844,
        "route_ids": [
          "aus:vic:vic-01-TRN:",
          "aus:vic:vic-01-BDE:"
        ]
      }
    },
    {
      "type": "Feature",
      "geometry": {
        "type": "Point",
        "coordinates": [
          144.49848487,
          -37.96292909
        ]
      },
      "properties": {
        "average_wait_time": 310.1911315917969,
        "color": "#e74c3c",
        "connectivity_score": 34.55714416503906,
        "coverage_score": 10.0,
        "frequency_score": 33.0,
        "id": "1-vic:rail:LRR",
        "mode_id": 1,
        "mode_name": "Regional Train",
        "name": "Little River Railway Station",
        "nearby_stops": [],
        "reliability_score": 71.42857360839844,
        "route_ids": [
          "aus:vic:vic-01-GEL:"
        ]
      }
    },
    {
      "type": "Feature",
      "geometry": {
        "type": "Point",
        "coordinates": [
          145.10299728,
          -37.09233454
        ]
      },
      "properties": {
        "average_wait_time": 324.4100036621094,
        "color": "#e74c3c",
        "connectivity_score": 33.85714340209961,
        "coverage_score": 20.0,
        "frequency_score": 22.5,
        "id": "1-vic:rail:TOK",
        "mode_id": 1,
        "mode_name": "Regional Train",
        "name": "Tallarook Railway Station",
        "nearby_stops": [],
        "reliability_score": 71.42857360839844,
        "route_ids": [
          "aus:vic:vic-01-SNH:",
          "aus:vic:vic-01-SER:"
        ]
      }
    },
    {
      "type": "Feature",
      "geometry": {
        "type": "Point",
        "coordinates": [
          145.20972537,
          -37.98996792
        ]
      },
      "properties": {
        "average_wait_time": 314.94586181640625,
        "color": "#e74c3c",
        "connectivity_score": 36.257144927978516,
        "coverage_score": 20.0,
        "frequency_score": 28.5,
        "id": "1-vic:rail:DNG",
        "mode_id": 1,
        "mode_name": "Regional Train",
        "name": "Dandenong Railway Station",
        "nearby_stops": [],
        "reliability_score": 71.42857360839844,
        "route_ids": [
          "aus:vic:vic-01-BDE:",
          "aus:vic:vic-01-TRN:"
        ]
      }
    },
    {
      "type": "Feature",
      "geometry": {
        "type": "Point",
        "coordinates": [
          144.2483799,
          -36.71852539
        ]
      },
      "properties": {
        "average_wait_time": 622.3333740234375,
        "color": "#e74c3c",
        "connectivity_score": 27.257143020629883,
        "coverage_score": 20.0,
        "frequency_score": 6.0,
        "id": "1-vic:rail:EAG-V",
        "mode_id": 1,
        "mode_name": "Regional Train",
        "name": "Eaglehawk Railway Station",
        "nearby_stops": [],
        "reliability_score": 71.42857360839844,
        "route_ids": [
          "aus:vic:vic-01-BGO:",
          "aus:vic:vic-01-SWL:"
        ]
      }
    },
    {
      "type": "Feature",
      "geometry": {
        "type": "Point",
        "coordinates": [
          144.75345866,
          -36.13098223
        ]
      },
      "properties": {
        "average_wait_time": 623.3500366210938,
        "color": "#e74c3c",
        "connectivity_score": 23.757143020629883,
        "coverage_score": 10.0,
        "frequency_score": 6.0,
        "id": "1-vic:rail:ECH",
        "mode_id": 1,
        "mode_name": "Regional Train",
        "name": "Echuca Railway Station",
        "nearby_stops": [],
        "reliability_score": 71.42857360839844,
        "route_ids": [
          "aus:vic:vic-01-ECH:"
        ]
      }
    },
    {
      "type": "Feature",
      "geometry": {
        "type": "Point",
        "coordinates": [
          144.72798098,
          -37.57928396
        ]
      },
      "properties": {
        "average_wait_time": 320.5523986816406,
        "color": "#e74c3c",
        "connectivity_score": 33.85714340209961,
        "coverage_score": 20.0,
        "frequency_score": 22.5,
        "id": "1-vic:rail:SUY",
        "mode_id": 1,
        "mode_name": "Regional Train",
        "name": "Sunbury Railway Station",
        "nearby_stops": [],
        "reliability_score": 71.42857360839844,
        "route_ids": [
          "aus:vic:vic-01-ECH:",
          "aus:vic:vic-01-BGO:"
        ]
      }
    },
    {
      "type": "Feature",
      "geometry": {
        "type": "Point",
        "coordinates": [
          144.21397878,
          -37.06284167
        ]
      },
      "properties": {
        "average_wait_time": 315.6500244140625,
        "color": "#e74c3c",
        "connectivity_score": 37.35714340209961,
        "coverage_score": 30.0,
        "frequency_score": 22.5,
        "id": "1-vic:rail:CME",
        "mode_id": 1,
        "mode_name": "Regional Train",
        "name": "Castlemaine Railway Station",
        "nearby_stops": [],
        "reliability_score": 71.42857360839844,
        "route_ids": [
          "aus:vic:vic-01-ECH:",
          "aus:vic:vic-01-BGO:",
          "aus:vic:vic-01-SWL:"
        ]
      }
    },
    {
      "type": "Feature",
      "geometry": {
        "type": "Point",
        "coordinates": [
          144.91961322,
          -37.68304926
        ]
      },
      "properties": {
        "average_wait_time": 313.89697265625,
        "color": "#f1c40f",
        "connectivity_score": 41.55714416503906,
        "coverage_score": 30.0,
        "frequency_score": 33.0,
        "id": "1-vic:rail:BMS",
        "mode_id": 1,
        "mode_name": "Regional Train",
        "name": "Broadmeadows Railway Station",
        "nearby_stops": [],
        "reliability_score": 71.42857360839844,
        "route_ids": [
          "aus:vic:vic-01-SER:",
          "aus:vic:vic-01-SNH:",
          "aus:vic:vic-01-ABY:"
        ]
      }
    },
    {
      "type": "Feature",
      "geometry": {
        "type": "Point",
        "coordinates": [
          146.53788212,
          -38.19888494
        ]
      },
      "properties": {
        "average_wait_time": 315.2854919433594,
        "color": "#e74c3c",
        "connectivity_score": 36.257144927978516,
        "coverage_score": 20.0,
        "frequency_score": 28.5,
        "id": "1-vic:rail:TRN",
        "mode_id": 1,
        "mode_name": "Regional Train",
        "name": "Traralgon Railway Station",
        "nearby_stops": [],
        "reliability_score": 71.42857360839844,
        "route_ids": [
          "aus:vic:vic-01-TRN:",
          "aus:vic:vic-01-BDE:"
        ]
      }
    },
    {
      "type": "Feature",
      "geometry": {
        "type": "Point",
        "coordinates": [
          145.56802043,
          -36.74918387
        ]
      },
      "properties": {
        "average_wait_time": 327.91668701171875,
        "color": "#e74c3c",
        "connectivity_score": 30.957143783569336,
        "coverage_score": 10.0,
        "frequency_score": 24.0,
        "id": "1-vic:rail:EOA",
        "mode_id": 1,
        "mode_name": "Regional Train",
        "name": "Euroa Railway Station",
        "nearby_stops": [],
        "reliability_score": 71.42857360839844,
        "route_ids": [
          "aus:vic:vic-01-ABY:"
        ]
      }
    },
    {
      "type": "Feature",
      "geometry": {
        "type": "Point",
        "coordinates": [
          143.1509278,
          -38.22890091
        ]
      },
      "properties": {
        "average_wait_time": 399.75,
        "color": "#e74c3c",
        "connectivity_score": 25.557144165039062,
        "coverage_score": 10.0,
        "frequency_score": 10.5,
        "id": "1-vic:rail:CPD",
        "mode_id": 1,
        "mode_name": "Regional Train",
        "name": "Camperdown Railway Station",
        "nearby_stops": [],
        "reliability_score": 71.42857360839844,
        "route_ids": [
          "aus:vic:vic-01-WBL:"
        ]
      }
    },
    {
      "type": "Feature",
      "geometry": {
        "type": "Point",
        "coordinates": [
          145.76686029,
          -38.11099211
        ]
      },
      "properties": {
        "average_wait_time": 315.0419616699219,
        "color": "#e74c3c",
        "connectivity_score": 36.257144927978516,
        "coverage_score": 20.0,
        "frequency_score": 28.5,
        "id": "1-vic:rail:LWY",
        "mode_id": 1,
        "mode_name": "Regional Train",
        "name": "Longwarry Railway Station",
        "nearby_stops": [],
        "reliability_score": 71.42857360839844,
        "route_ids": [
          "aus:vic:vic-01-TRN:",
          "aus:vic:vic-01-BDE:"
        ]
      }
    },
    {
      "type": "Feature",
      "geometry": {
        "type": "Point",
        "coordinates": [
          146.9243814,
          -36.0850459
        ]
      },
      "properties": {
        "average_wait_time": 643.066650390625,
        "color": "#e74c3c",
        "connectivity_score": 23.757143020629883,
        "coverage_score": 10.0,
        "frequency_score": 6.0,
        "id": "1-nsw:rail:ABY",
        "mode_id": 1,
        "mode_name": "Regional Train",
        "name": "Albury Railway Station",
        "nearby_stops": [],
        "reliability_score": 71.42857360839844,
        "route_ids": [
          "aus:vic:vic-01-ABY:"
        ]
      }
    },
    {
      "type": "Feature",
      "geometry": {
        "type": "Point",
        "coordinates": [
          145.40649749,
          -36.38379101
        ]
      },
      "properties": {
        "average_wait_time": 396.5,
        "color": "#e74c3c",
        "connectivity_score": 25.557144165039062,
        "coverage_score": 10.0,
        "frequency_score": 10.5,
        "id": "1-vic:rail:SNH",
        "mode_id": 1,
        "mode_name": "Regional Train",
        "name": "Shepparton Railway Station",
        "nearby_stops": [],
        "reliability_score": 71.42857360839844,
        "route_ids": [
          "aus:vic:vic-01-SNH:"
        ]
      }
    },
    {
      "type": "Feature",
      "geometry": {
        "type": "Point",
        "coordinates": [
          144.43678516,
          -37.68757821
        ]
      },
      "properties": {
        "average_wait_time": 309.1036071777344,
        "color": "#f1c40f",
        "connectivity_score": 43.35714340209961,
        "coverage_score": 30.0,
        "frequency_score": 37.5,
        "id": "1-vic:rail:BAH",
        "mode_id": 1,
        "mode_name": "Regional Train",
        "name": "Bacchus Marsh Railway Station",
        "nearby_stops": [],
        "reliability_score": 71.42857360839844,
        "route_ids": [
          "aus:vic:vic-01-ART:",
          "aus:vic:vic-01-MBY:",
          "aus:vic:vic-01-BAT:"
        ]
      }
    },
    {
      "type": "Feature",
      "geometry": {
        "type": "Point",
        "coordinates": [
          144.69868134,
          -36.3623605
        ]
      },
      "properties": {
        "average_wait_time": 413.3500061035156,
        "color": "#e74c3c",
        "connectivity_score": 25.557144165039062,
        "coverage_score": 10.0,
        "frequency_score": 10.5,
        "id": "1-vic:rail:ROR",
        "mode_id": 1,
        "mode_name": "Regional Train",
        "name": "Rochester Railway Station",
        "nearby_stops": [],
        "reliability_score": 71.42857360839844,
        "route_ids": [
          "aus:vic:vic-01-ECH:"
        ]
      }
    },
    {
      "type": "Feature",
      "geometry": {
        "type": "Point",
        "coordinates": [
          143.74240234,
          -37.05090849
        ]
      },
      "properties": {
        "average_wait_time": 642.800048828125,
        "color": "#e74c3c",
        "connectivity_score": 23.757143020629883,
        "coverage_score": 10.0,
        "frequency_score": 6.0,
        "id": "1-vic:rail:MBY",
        "mode_id": 1,
        "mode_name": "Regional Train",
        "name": "Maryborough Railway Station",
        "nearby_stops": [],
        "reliability_score": 71.42857360839844,
        "route_ids": [
          "aus:vic:vic-01-MBY:"
        ]
      }
    },
    {
      "type": "Feature",
      "geometry": {
        "type": "Point",
        "coordinates": [
          144.35231162,
          -38.12268295
        ]
      },
      "properties": {
        "average_wait_time": 305.6673889160156,
        "color": "#f1c40f",
        "connectivity_score": 45.657142639160156,
        "coverage_score": 20.0,
        "frequency_score": 52.0,
        "id": "1-vic:rail:NGL",
        "mode_id": 1,
        "mode_name": "Regional Train",
        "name": "North Geelong Railway Station",
        "nearby_stops": [],
        "reliability_score": 71.42857360839844,
        "route_ids": [
          "aus:vic:vic-01-WBL:",
          "aus:vic:vic-01-GEL:"
        ]
      }
    },
    {
      "type": "Feature",
      "geometry": {
        "type": "Point",
        "coordinates": [
          144.3210526,
          -36.70628781
        ]
      },
      "properties": {
        "average_wait_time": 359.88336181640625,
        "color": "#e74c3c",
        "connectivity_score": 29.057144165039062,
        "coverage_score": 20.0,
        "frequency_score": 10.5,
        "id": "1-vic:rail:EPM",
        "mode_id": 1,
        "mode_name": "Regional Train",
        "name": "Epsom Railway Station",
        "nearby_stops": [],
        "reliability_score": 71.42857360839844,
        "route_ids": [
          "aus:vic:vic-01-BGO:",
          "aus:vic:vic-01-ECH:"
        ]
      }
    },
    {
      "type": "Feature",
      "geometry": {
        "type": "Point",
        "coordinates": [
          146.0630628,
          -38.20315754
        ]
      },
      "properties": {
        "average_wait_time": 314.6800231933594,
        "color": "#e74c3c",
        "connectivity_score": 36.257144927978516,
        "coverage_score": 20.0,
        "frequency_score": 28.5,
        "id": "1-vic:rail:YON",
        "mode_id": 1,
        "mode_name": "Regional Train",
        "name": "Yarragon Railway Station",
        "nearby_stops": [],
        "reliability_score": 71.42857360839844,
        "route_ids": [
          "aus:vic:vic-01-BDE:",
          "aus:vic:vic-01-TRN:"
        ]
      }
    },
    {
      "type": "Feature",
      "geometry": {
        "type": "Point",
        "coordinates": [
          143.98413389,
          -38.24013506
        ]
      },
      "properties": {
        "average_wait_time": 358.9250183105469,
        "color": "#e74c3c",
        "connectivity_score": 25.557144165039062,
        "coverage_score": 10.0,
        "frequency_score": 10.5,
        "id": "1-vic:rail:WIA",
        "mode_id": 1,
        "mode_name": "Regional Train",
        "name": "Winchelsea Railway Station",
        "nearby_stops": [],
        "reliability_score": 71.42857360839844,
        "route_ids": [
          "aus:vic:vic-01-WBL:"
        ]
      }
    },
    {
      "type": "Feature",
      "geometry": {
        "type": "Point",
        "coordinates": [
          144.74537264,
          -37.48349769
        ]
      },
      "properties": {
        "average_wait_time": 316.365478515625,
        "color": "#e74c3c",
        "connectivity_score": 33.85714340209961,
        "coverage_score": 20.0,
        "frequency_score": 22.5,
        "id": "1-vic:rail:CKF",
        "mode_id": 1,
        "mode_name": "Regional Train",
        "name": "Clarkefield Railway Station",
        "nearby_stops": [],
        "reliability_score": 71.42857360839844,
        "route_ids": [
          "aus:vic:vic-01-ECH:",
          "aus:vic:vic-01-BGO:"
        ]
      }
    },
    {
      "type": "Feature",
      "geometry": {
        "type": "Point",
        "coordinates": [
          145.04252478,
          -37.87745946
        ]
      },
      "properties": {
        "average_wait_time": 314.0737609863281,
        "color": "#e74c3c",
        "connectivity_score": 36.257144927978516,
        "coverage_score": 20.0,
        "frequency_score": 28.5,
        "id": "1-vic:rail:CFD",
        "mode_id": 1,
        "mode_name": "Regional Train",
        "name": "Caulfield Railway Station",
        "nearby_stops": [],
        "reliability_score": 71.42857360839844,
        "route_ids": [
          "aus:vic:vic-01-BDE:",
          "aus:vic:vic-01-TRN:"
        ]
      }
    },
    {
      "type": "Feature",
      "geometry": {
        "type": "Point",
        "coordinates": [
          143.82121077,
          -37.53997217
        ]
      },
      "properties": {
        "average_wait_time": 311.8957214355469,
        "color": "#e74c3c",
        "connectivity_score": 38.05714416503906,
        "coverage_score": 20.0,
        "frequency_score": 33.0,
        "id": "1-vic:rail:WED",
        "mode_id": 1,
        "mode_name": "Regional Train",
        "name": "Wendouree Railway Station",
        "nearby_stops": [],
        "reliability_score": 71.42857360839844,
        "route_ids": [
          "aus:vic:vic-01-BAT:",
          "aus:vic:vic-01-ART:"
        ]
      }
    },
    {
      "type": "Feature",
      "geometry": {
        "type": "Point",
        "coordinates": [
          145.67422472,
          -38.09103062
        ]
      },
      "properties": {
        "average_wait_time": 312.9609375,
        "color": "#e74c3c",
        "connectivity_score": 38.05714416503906,
        "coverage_score": 20.0,
        "frequency_score": 33.0,
        "id": "1-vic:rail:GAR-V",
        "mode_id": 1,
        "mode_name": "Regional Train",
        "name": "Garfield Railway Station",
        "nearby_stops": [],
        "reliability_score": 71.42857360839844,
        "route_ids": [
          "aus:vic:vic-01-BDE:",
          "aus:vic:vic-01-TRN:"
        ]
      }
    },
    {
      "type": "Feature",
      "geometry": {
        "type": "Point",
        "coordinates": [
          143.78362521,
          -38.32880781
        ]
      },
      "properties": {
        "average_wait_time": 399.7785949707031,
        "color": "#e74c3c",
        "connectivity_score": 25.557144165039062,
        "coverage_score": 10.0,
        "frequency_score": 10.5,
        "id": "1-vic:rail:BGE",
        "mode_id": 1,
        "mode_name": "Regional Train",
        "name": "Birregurra Railway Station",
        "nearby_stops": [],
        "reliability_score": 71.42857360839844,
        "route_ids": [
          "aus:vic:vic-01-WBL:"
        ]
      }
    },
    {
      "type": "Feature",
      "geometry": {
        "type": "Point",
        "coordinates": [
          144.36532142,
          -38.09837714
        ]
      },
      "properties": {
        "average_wait_time": 306.85736083984375,
        "color": "#f1c40f",
        "connectivity_score": 42.157142639160156,
        "coverage_score": 10.0,
        "frequency_score": 52.0,
        "id": "1-vic:rail:NSH",
        "mode_id": 1,
        "mode_name": "Regional Train",
        "name": "North Shore Railway Station",
        "nearby_stops": [],
        "reliability_score": 71.42857360839844,
        "route_ids": [
          "aus:vic:vic-01-GEL:"
        ]
      }
    },
    {
      "type": "Feature",
      "geometry": {
        "type": "Point",
        "coordinates": [
          143.88812365,
          -37.42460539
        ]
      },
      "properties": {
        "average_wait_time": 642.800048828125,
        "color": "#e74c3c",
        "connectivity_score": 23.757143020629883,
        "coverage_score": 10.0,
        "frequency_score": 6.0,
        "id": "1-vic:rail:CWK",
        "mode_id": 1,
        "mode_name": "Regional Train",
        "name": "Creswick Railway Station",
        "nearby_stops": [],
        "reliability_score": 71.42857360839844,
        "route_ids": [
          "aus:vic:vic-01-MBY:"
        ]
      }
    },
    {
      "type": "Feature",
      "geometry": {
        "type": "Point",
        "coordinates": [
          145.0430079,
          -37.20720049
        ]
      },
      "properties": {
        "average_wait_time": 316.8123779296875,
        "color": "#e74c3c",
        "connectivity_score": 33.85714340209961,
        "coverage_score": 20.0,
        "frequency_score": 22.5,
        "id": "1-vic:rail:BRF",
        "mode_id": 1,
        "mode_name": "Regional Train",
        "name": "Broadford Railway Station",
        "nearby_stops": [],
        "reliability_score": 71.42857360839844,
        "route_ids": [
          "aus:vic:vic-01-SER:",
          "aus:vic:vic-01-SNH:"
        ]
      }
    },
    {
      "type": "Feature",
      "geometry": {
        "type": "Point",
        "coordinates": [
          142.91147221,
          -38.23621199
        ]
      },
      "properties": {
        "average_wait_time": 619.5333251953125,
        "color": "#e74c3c",
        "connectivity_score": 23.757143020629883,
        "coverage_score": 10.0,
        "frequency_score": 6.0,
        "id": "1-vic:rail:TER",
        "mode_id": 1,
        "mode_name": "Regional Train",
        "name": "Terang Railway Station",
        "nearby_stops": [],
        "reliability_score": 71.42857360839844,
        "route_ids": [
          "aus:vic:vic-01-WBL:"
        ]
      }
    },
    {
      "type": "Feature",
      "geometry": {
        "type": "Point",
        "coordinates": [
          144.45060159,
          -37.25827885
        ]
      },
      "properties": {
        "average_wait_time": 314.5233459472656,
        "color": "#e74c3c",
        "connectivity_score": 39.157142639160156,
        "coverage_score": 30.0,
        "frequency_score": 27.0,
        "id": "1-vic:rail:KYN",
        "mode_id": 1,
        "mode_name": "Regional Train",
        "name": "Kyneton Railway Station",
        "nearby_stops": [],
        "reliability_score": 71.42857360839844,
        "route_ids": [
          "aus:vic:vic-01-ECH:",
          "aus:vic:vic-01-SWL:",
          "aus:vic:vic-01-BGO:"
        ]
      }
    },
    {
      "type": "Feature",
      "geometry": {
        "type": "Point",
        "coordinates": [
          146.26054896,
          -38.17689039
        ]
      },
      "properties": {
        "average_wait_time": 314.7392578125,
        "color": "#e74c3c",
        "connectivity_score": 36.257144927978516,
        "coverage_score": 20.0,
        "frequency_score": 28.5,
        "id": "1-vic:rail:MOE",
        "mode_id": 1,
        "mode_name": "Regional Train",
        "name": "Moe Railway Station",
        "nearby_stops": [],
        "reliability_score": 71.42857360839844,
        "route_ids": [
          "aus:vic:vic-01-BDE:",
          "aus:vic:vic-01-TRN:"
        ]
      }
    },
    {
      "type": "Feature",
      "geometry": {
        "type": "Point",
        "coordinates": [
          144.67983071,
          -37.46512379
        ]
      },
      "properties": {
        "average_wait_time": 316.2416687011719,
        "color": "#e74c3c",
        "connectivity_score": 33.85714340209961,
        "coverage_score": 20.0,
        "frequency_score": 22.5,
        "id": "1-vic:rail:RIK",
        "mode_id": 1,
        "mode_name": "Regional Train",
        "name": "Riddells Creek Railway Station",
        "nearby_stops": [],
        "reliability_score": 71.42857360839844,
        "route_ids": [
          "aus:vic:vic-01-ECH:",
          "aus:vic:vic-01-BGO:"
        ]
      }
    },
    {
      "type": "Feature",
      "geometry": {
        "type": "Point",
        "coordinates": [
          144.37532317,
          -37.18974032
        ]
      },
      "properties": {
        "average_wait_time": 323.7206115722656,
        "color": "#e74c3c",
        "connectivity_score": 34.95714569091797,
        "coverage_score": 30.0,
        "frequency_score": 16.5,
        "id": "1-vic:rail:MMY-V",
        "mode_id": 1,
        "mode_name": "Regional Train",
        "name": "Malmsbury Railway Station",
        "nearby_stops": [],
        "reliability_score": 71.42857360839844,
        "route_ids": [
          "aus:vic:vic-01-SWL:",
          "aus:vic:vic-01-ECH:",
          "aus:vic:vic-01-BGO:"
        ]
      }
    },
    {
      "type": "Feature",
      "geometry": {
        "type": "Point",
        "coordinates": [
          146.47041695,
          -36.1858934
        ]
      },
      "properties": {
        "average_wait_time": 632.1500244140625,
        "color": "#e74c3c",
        "connectivity_score": 23.757143020629883,
        "coverage_score": 10.0,
        "frequency_score": 6.0,
        "id": "1-vic:rail:SHT",
        "mode_id": 1,
        "mode_name": "Regional Train",
        "name": "Springhurst Railway Station",
        "nearby_stops": [],
        "reliability_score": 71.42857360839844,
        "route_ids": [
          "aus:vic:vic-01-ABY:"
        ]
      }
    },
    {
      "type": "Feature",
      "geometry": {
        "type": "Point",
        "coordinates": [
          144.98356599,
          -37.29321027
        ]
      },
      "properties": {
        "average_wait_time": 317.3307189941406,
        "color": "#e74c3c",
        "connectivity_score": 33.85714340209961,
        "coverage_score": 20.0,
        "frequency_score": 22.5,
        "id": "1-vic:rail:KET",
        "mode_id": 1,
        "mode_name": "Regional Train",
        "name": "Kilmore East Station",
        "nearby_stops": [],
        "reliability_score": 71.42857360839844,
        "route_ids": [
          "aus:vic:vic-01-SNH:",
          "aus:vic:vic-01-SER:"
        ]
      }
    },
    {
      "type": "Feature",
      "geometry": {
        "type": "Point",
        "coordinates": [
          144.8328782,
          -37.78853633
        ]
      },
      "properties": {
        "average_wait_time": 302.33331298828125,
        "color": "#f1c40f",
        "connectivity_score": 58.4571418762207,
        "coverage_score": 40.0,
        "frequency_score": 66.5,
        "id": "1-vic:rail:SUN",
        "mode_id": 1,
        "mode_name": "Regional Train",
        "name": "Sunshine Railway Station",
        "nearby_stops": [],
        "reliability_score": 71.42857360839844,
        "route_ids": [
          "aus:vic:vic-01-BAT:",
          "aus:vic:vic-01-ART:",
          "aus:vic:vic-01-MBY:",
          "aus:vic:vic-01-GEL:"
        ]
      }
    },
    {
      "type": "Feature",
      "geometry": {
        "type": "Point",
        "coordinates": [
          144.20116104,
          -36.53195927
        ]
      },
      "properties": {
        "average_wait_time": 662.0,
        "color": "#e74c3c",
        "connectivity_score": 23.757143020629883,
        "coverage_score": 10.0,
        "frequency_score": 6.0,
        "id": "1-vic:rail:RAY",
        "mode_id": 1,
        "mode_name": "Regional Train",
        "name": "Raywood Railway Station",
        "nearby_stops": [],
        "reliability_score": 71.42857360839844,
        "route_ids": [
          "aus:vic:vic-01-SWL:"
        ]
      }
    },
    {
      "type": "Feature",
      "geometry": {
        "type": "Point",
        "coordinates": [
          147.62761375,
          -37.82872043
        ]
      },
      "properties": {
        "average_wait_time": 641.4000244140625,
        "color": "#e74c3c",
        "connectivity_score": 23.757143020629883,
        "coverage_score": 10.0,
        "frequency_score": 6.0,
        "id": "1-vic:rail:BDE",
        "mode_id": 1,
        "mode_name": "Regional Train",
        "name": "Bairnsdale Railway Station",
        "nearby_stops": [],
        "reliability_score": 71.42857360839844,
        "route_ids": [
          "aus:vic:vic-01-BDE:"
        ]
      }
    },
    {
      "type": "Feature",
      "geometry": {
        "type": "Point",
        "coordinates": [
          145.72075749,
          -38.09910771
        ]
      },
      "properties": {
        "average_wait_time": 315.24249267578125,
        "color": "#e74c3c",
        "connectivity_score": 36.257144927978516,
        "coverage_score": 20.0,
        "frequency_score": 28.5,
        "id": "1-vic:rail:BYP",
        "mode_id": 1,
        "mode_name": "Regional Train",
        "name": "Bunyip Railway Station",
        "nearby_stops": [],
        "reliability_score": 71.42857360839844,
        "route_ids": [
          "aus:vic:vic-01-BDE:",
          "aus:vic:vic-01-TRN:"
        ]
      }
    },
    {
      "type": "Feature",
      "geometry": {
        "type": "Point",
        "coordinates": [
          145.34541666,
          -38.03998037
        ]
      },
      "properties": {
        "average_wait_time": 766.9500122070312,
        "color": "#e74c3c",
        "connectivity_score": 23.157142639160156,
        "coverage_score": 10.0,
        "frequency_score": 4.5,
        "id": "1-vic:rail:BEW",
        "mode_id": 1,
        "mode_name": "Regional Train",
        "name": "Berwick Railway Station",
        "nearby_stops": [],
        "reliability_score": 71.42857360839844,
        "route_ids": [
          "aus:vic:vic-01-TRN:"
        ]
      }
    },
    {
      "type": "Feature",
      "geometry": {
        "type": "Point",
        "coordinates": [
          144.50347417,
          -36.61518327
        ]
      },
      "properties": {
        "average_wait_time": 365.25,
        "color": "#e74c3c",
        "connectivity_score": 25.557144165039062,
        "coverage_score": 10.0,
        "frequency_score": 10.5,
        "id": "1-vic:rail:GRG",
        "mode_id": 1,
        "mode_name": "Regional Train",
        "name": "Goornong Railway Station",
        "nearby_stops": [],
        "reliability_score": 71.42857360839844,
        "route_ids": [
          "aus:vic:vic-01-ECH:"
        ]
      }
    },
    {
      "type": "Feature",
      "geometry": {
        "type": "Point",
        "coordinates": [
          145.16035666,
          -36.7854641
        ]
      },
      "properties": {
        "average_wait_time": 369.71502685546875,
        "color": "#e74c3c",
        "connectivity_score": 25.557144165039062,
        "coverage_score": 10.0,
        "frequency_score": 10.5,
        "id": "1-vic:rail:NGE",
        "mode_id": 1,
        "mode_name": "Regional Train",
        "name": "Nagambie Railway Station",
        "nearby_stops": [],
        "reliability_score": 71.42857360839844,
        "route_ids": [
          "aus:vic:vic-01-SNH:"
        ]
      }
    },
    {
      "type": "Feature",
      "geometry": {
        "type": "Point",
        "coordinates": [
          146.87126565,
          -36.10584513
        ]
      },
      "properties": {
        "average_wait_time": 643.066650390625,
        "color": "#e74c3c",
        "connectivity_score": 23.757143020629883,
        "coverage_score": 10.0,
        "frequency_score": 6.0,
        "id": "1-vic:rail:WOD",
        "mode_id": 1,
        "mode_name": "Regional Train",
        "name": "Wodonga Railway Station",
        "nearby_stops": [],
        "reliability_score": 71.42857360839844,
        "route_ids": [
          "aus:vic:vic-01-ABY:"
        ]
      }
    },
    {
      "type": "Feature",
      "geometry": {
        "type": "Point",
        "coordinates": [
          144.35898705,
          -38.15865863
        ]
      },
      "properties": {
        "average_wait_time": 305.91943359375,
        "color": "#f1c40f",
        "connectivity_score": 45.657142639160156,
        "coverage_score": 20.0,
        "frequency_score": 52.0,
        "id": "1-vic:rail:SOG",
        "mode_id": 1,
        "mode_name": "Regional Train",
        "name": "South Geelong Railway Station",
        "nearby_stops": [],
        "reliability_score": 71.42857360839844,
        "route_ids": [
          "aus:vic:vic-01-WBL:",
          "aus:vic:vic-01-GEL:"
        ]
      }
    },
    {
      "type": "Feature",
      "geometry": {
        "type": "Point",
        "coordinates": [
          144.57209861,
          -37.70347382
        ]
      },
      "properties": {
        "average_wait_time": 307.28179931640625,
        "color": "#f1c40f",
        "connectivity_score": 47.35714340209961,
        "coverage_score": 30.0,
        "frequency_score": 47.5,
        "id": "1-vic:rail:MEL",
        "mode_id": 1,
        "mode_name": "Regional Train",
        "name": "Melton Railway Station",
        "nearby_stops": [],
        "reliability_score": 71.42857360839844,
        "route_ids": [
          "aus:vic:vic-01-BAT:",
          "aus:vic:vic-01-MBY:",
          "aus:vic:vic-01-ART:"
        ]
      }
    },
    {
      "type": "Feature",
      "geometry": {
        "type": "Point",
        "coordinates": [
          145.98391505,
          -36.54455031
        ]
      },
      "properties": {
        "average_wait_time": 632.1500244140625,
        "color": "#e74c3c",
        "connectivity_score": 23.757143020629883,
        "coverage_score": 10.0,
        "frequency_score": 6.0,
        "id": "1-vic:rail:BXA",
        "mode_id": 1,
        "mode_name": "Regional Train",
        "name": "Benalla Railway Station",
        "nearby_stops": [],
        "reliability_score": 71.42857360839844,
        "route_ids": [
          "aus:vic:vic-01-ABY:"
        ]
      }
    },
    {
      "type": "Feature",
      "geometry": {
        "type": "Point",
        "coordinates": [
          144.59872157,
          -37.4588255
        ]
      },
      "properties": {
        "average_wait_time": 313.2352600097656,
        "color": "#e74c3c",
        "connectivity_score": 39.157142639160156,
        "coverage_score": 30.0,
        "frequency_score": 27.0,
        "id": "1-vic:rail:GIS",
        "mode_id": 1,
        "mode_name": "Regional Train",
        "name": "Gisborne Railway Station",
        "nearby_stops": [],
        "reliability_score": 71.42857360839844,
        "route_ids": [
          "aus:vic:vic-01-SWL:",
          "aus:vic:vic-01-ECH:",
          "aus:vic:vic-01-BGO:"
        ]
      }
    },
    {
      "type": "Feature",
      "geometry": {
        "type": "Point",
        "coordinates": [
          144.73573715,
          -37.76612649
        ]
      },
      "properties": {
        "average_wait_time": 307.759521484375,
        "color": "#f1c40f",
        "connectivity_score": 47.35714340209961,
        "coverage_score": 30.0,
        "frequency_score": 47.5,
        "id": "1-vic:rail:RVH",
        "mode_id": 1,
        "mode_name": "Regional Train",
        "name": "Caroline Springs Railway Station",
        "nearby_stops": [],
        "reliability_score": 71.42857360839844,
        "route_ids": [
          "aus:vic:vic-01-MBY:",
          "aus:vic:vic-01-ART:",
          "aus:vic:vic-01-BAT:"
        ]
      }
    },
    {
      "type": "Feature",
      "geometry": {
        "type": "Point",
        "coordinates": [
          145.57166573,
          -38.08159155
        ]
      },
      "properties": {
        "average_wait_time": 314.952880859375,
        "color": "#e74c3c",
        "connectivity_score": 36.257144927978516,
        "coverage_score": 20.0,
        "frequency_score": 28.5,
        "id": "1-vic:rail:NNG",
        "mode_id": 1,
        "mode_name": "Regional Train",
        "name": "Nar Nar Goon Railway Station",
        "nearby_stops": [],
        "reliability_score": 71.42857360839844,
        "route_ids": [
          "aus:vic:vic-01-BDE:",
          "aus:vic:vic-01-TRN:"
        ]
      }
    },
    {
      "type": "Feature",
      "geometry": {
        "type": "Point",
        "coordinates": [
          144.36982046,
          -36.66584794
        ]
      },
      "properties": {
        "average_wait_time": 364.0500183105469,
        "color": "#e74c3c",
        "connectivity_score": 25.557144165039062,
        "coverage_score": 10.0,
        "frequency_score": 10.5,
        "id": "1-vic:rail:HUY",
        "mode_id": 1,
        "mode_name": "Regional Train",
        "name": "Huntly Railway Station",
        "nearby_stops": [],
        "reliability_score": 71.42857360839844,
        "route_ids": [
          "aus:vic:vic-01-ECH:"
        ]
      }
    },
    {
      "type": "Feature",
      "geometry": {
        "type": "Point",
        "coordinates": [
          144.9161975,
          -37.7560117
        ]
      },
      "properties": {
        "average_wait_time": 717.4500122070312,
        "color": "#e74c3c",
        "connectivity_score": 26.657142639160156,
        "coverage_score": 20.0,
        "frequency_score": 4.5,
        "id": "1-vic:rail:ESD",
        "mode_id": 1,
        "mode_name": "Regional Train",
        "name": "Essendon Railway Station",
        "nearby_stops": [],
        "reliability_score": 71.42857360839844,
        "route_ids": [
          "aus:vic:vic-01-SER:",
          "aus:vic:vic-01-SNH:"
        ]
      }
    },
    {
      "type": "Feature",
      "geometry": {
        "type": "Point",
        "coordinates": [
          145.6282343,
          -38.08499626
        ]
      },
      "properties": {
        "average_wait_time": 314.93621826171875,
        "color": "#e74c3c",
        "connectivity_score": 36.257144927978516,
        "coverage_score": 20.0,
        "frequency_score": 28.5,
        "id": "1-vic:rail:TYN",
        "mode_id": 1,
        "mode_name": "Regional Train",
        "name": "Tynong Railway Station",
        "nearby_stops": [],
        "reliability_score": 71.42857360839844,
        "route_ids": [
          "aus:vic:vic-01-BDE:",
          "aus:vic:vic-01-TRN:"
        ]
      }
    },
    {
      "type": "Feature",
      "geometry": {
        "type": "Point",
        "coordinates": [
          145.71592345,
          -36.63881606
        ]
      },
      "properties": {
        "average_wait_time": 632.1500244140625,
        "color": "#e74c3c",
        "connectivity_score": 23.757143020629883,
        "coverage_score": 10.0,
        "frequency_score": 6.0,
        "id": "1-vic:rail:VTN",
        "mode_id": 1,
        "mode_name": "Regional Train",
        "name": "Violet Town Railway Station",
        "nearby_stops": [],
        "reliability_score": 71.42857360839844,
        "route_ids": [
          "aus:vic:vic-01-ABY:"
        ]
      }
    },
    {
      "type": "Feature",
      "geometry": {
        "type": "Point",
        "coordinates": [
          144.23112034,
          -36.36923291
        ]
      },
      "properties": {
        "average_wait_time": 662.0,
        "color": "#e74c3c",
        "connectivity_score": 23.757143020629883,
        "coverage_score": 10.0,
        "frequency_score": 6.0,
        "id": "1-vic:rail:DGE",
        "mode_id": 1,
        "mode_name": "Regional Train",
        "name": "Dingee Railway Station",
        "nearby_stops": [],
        "reliability_score": 71.42857360839844,
        "route_ids": [
          "aus:vic:vic-01-SWL:"
        ]
      }
    },
    {
      "type": "Feature",
      "geometry": {
        "type": "Point",
        "coordinates": [
          143.78208969,
          -37.30301059
        ]
      },
      "properties": {
        "average_wait_time": 642.800048828125,
        "color": "#e74c3c",
        "connectivity_score": 23.757143020629883,
        "coverage_score": 10.0,
        "frequency_score": 6.0,
        "id": "1-vic:rail:CLU",
        "mode_id": 1,
        "mode_name": "Regional Train",
        "name": "Clunes Railway Station",
        "nearby_stops": [],
        "reliability_score": 71.42857360839844,
        "route_ids": [
          "aus:vic:vic-01-MBY:"
        ]
      }
    },
    {
      "type": "Feature",
      "geometry": {
        "type": "Point",
        "coordinates": [
          144.28300893,
          -36.76566973
        ]
      },
      "properties": {
        "average_wait_time": 318.1343078613281,
        "color": "#e74c3c",
        "connectivity_score": 39.757144927978516,
        "coverage_score": 30.0,
        "frequency_score": 28.5,
        "id": "1-vic:rail:BGO",
        "mode_id": 1,
        "mode_name": "Regional Train",
        "name": "Bendigo Railway Station",
        "nearby_stops": [],
        "reliability_score": 71.42857360839844,
        "route_ids": [
          "aus:vic:vic-01-ECH:",
          "aus:vic:vic-01-BGO:",
          "aus:vic:vic-01-SWL:"
        ]
      }
    },
    {
      "type": "Feature",
      "geometry": {
        "type": "Point",
        "coordinates": [
          144.37976842,
          -38.07283126
        ]
      },
      "properties": {
        "average_wait_time": 310.0357666015625,
        "color": "#e74c3c",
        "connectivity_score": 34.55714416503906,
        "coverage_score": 10.0,
        "frequency_score": 33.0,
        "id": "1-vic:rail:COR",
        "mode_id": 1,
        "mode_name": "Regional Train",
        "name": "Corio Railway Station",
        "nearby_stops": [],
        "reliability_score": 71.42857360839844,
        "route_ids": [
          "aus:vic:vic-01-GEL:"
        ]
      }
    },
    {
      "type": "Feature",
      "geometry": {
        "type": "Point",
        "coordinates": [
          146.31702684,
          -36.35515492
        ]
      },
      "properties": {
        "average_wait_time": 632.1500244140625,
        "color": "#e74c3c",
        "connectivity_score": 23.757143020629883,
        "coverage_score": 10.0,
        "frequency_score": 6.0,
        "id": "1-vic:rail:WRT",
        "mode_id": 1,
        "mode_name": "Regional Train",
        "name": "Wangaratta Railway Station",
        "nearby_stops": [],
        "reliability_score": 71.42857360839844,
        "route_ids": [
          "aus:vic:vic-01-ABY:"
        ]
      }
    },
    {
      "type": "Feature",
      "geometry": {
        "type": "Point",
        "coordinates": [
          146.15477284,
          -38.2072423
        ]
      },
      "properties": {
        "average_wait_time": 314.8033447265625,
        "color": "#e74c3c",
        "connectivity_score": 36.257144927978516,
        "coverage_score": 20.0,
        "frequency_score": 28.5,
        "id": "1-vic:rail:TAR",
        "mode_id": 1,
        "mode_name": "Regional Train",
        "name": "Trafalgar Railway Station",
        "nearby_stops": [],
        "reliability_score": 71.42857360839844,
        "route_ids": [
          "aus:vic:vic-01-BDE:",
          "aus:vic:vic-01-TRN:"
        ]
      }
    },
    {
      "type": "Feature",
      "geometry": {
        "type": "Point",
        "coordinates": [
          144.97020358,
          -37.54202766
        ]
      },
      "properties": {
        "average_wait_time": 316.7823791503906,
        "color": "#e74c3c",
        "connectivity_score": 33.85714340209961,
        "coverage_score": 20.0,
        "frequency_score": 22.5,
        "id": "1-vic:rail:DBK",
        "mode_id": 1,
        "mode_name": "Regional Train",
        "name": "Donnybrook Railway Station",
        "nearby_stops": [],
        "reliability_score": 71.42857360839844,
        "route_ids": [
          "aus:vic:vic-01-SER:",
          "aus:vic:vic-01-SNH:"
        ]
      }
    },
    {
      "type": "Feature",
      "geometry": {
        "type": "Point",
        "coordinates": [
          144.77418099,
          -37.70111071
        ]
      },
      "properties": {
        "average_wait_time": 367.875,
        "color": "#e74c3c",
        "connectivity_score": 29.057144165039062,
        "coverage_score": 20.0,
        "frequency_score": 10.5,
        "id": "1-vic:rail:WGS",
        "mode_id": 1,
        "mode_name": "Regional Train",
        "name": "Watergardens Railway Station",
        "nearby_stops": [],
        "reliability_score": 71.42857360839844,
        "route_ids": [
          "aus:vic:vic-01-BGO:",
          "aus:vic:vic-01-SWL:"
        ]
      }
    },
    {
      "type": "Feature",
      "geometry": {
        "type": "Point",
        "coordinates": [
          147.05480513,
          -38.10310272
        ]
      },
      "properties": {
        "average_wait_time": 426.2166748046875,
        "color": "#e74c3c",
        "connectivity_score": 25.557144165039062,
        "coverage_score": 10.0,
        "frequency_score": 10.5,
        "id": "1-vic:rail:SAE",
        "mode_id": 1,
        "mode_name": "Regional Train",
        "name": "Sale Railway Station",
        "nearby_stops": [],
        "reliability_score": 71.42857360839844,
        "route_ids": [
          "aus:vic:vic-01-BDE:"
        ]
      }
    },
    {
      "type": "Feature",
      "geometry": {
        "type": "Point",
        "coordinates": [
          144.90202006,
          -37.80141343
        ]
      },
      "properties": {
        "average_wait_time": 301.76409912109375,
        "color": "#2ecc71",
        "connectivity_score": 72.45713806152344,
        "coverage_score": 80.0,
        "frequency_score": 66.5,
        "id": "1-vic:rail:FSY",
        "mode_id": 1,
        "mode_name": "Regional Train",
        "name": "Footscray Railway Station",
        "nearby_stops": [],
        "reliability_score": 71.42857360839844,
        "route_ids": [
          "aus:vic:vic-01-ART:",
          "aus:vic:vic-01-BAT:",
          "aus:vic:vic-01-ECH:",
          "aus:vic:vic-01-MBY:",
          "aus:vic:vic-01-SWL:",
          "aus:vic:vic-01-WBL:",
          "aus:vic:vic-01-GEL:",
          "aus:vic:vic-01-BGO:"
        ]
      }
    },
    {
      "type": "Feature",
      "geometry": {
        "type": "Point",
        "coordinates": [
          143.56234321,
          -35.34111357
        ]
      },
      "properties": {
        "average_wait_time": 613.6000366210938,
        "color": "#e74c3c",
        "connectivity_score": 23.757143020629883,
        "coverage_score": 10.0,
        "frequency_score": 6.0,
        "id": "1-vic:rail:SWL",
        "mode_id": 1,
        "mode_name": "Regional Train",
        "name": "Swan Hill Railway Station",
        "nearby_stops": [],
        "reliability_score": 71.42857360839844,
        "route_ids": [
          "aus:vic:vic-01-SWL:"
        ]
      }
    },
    {
      "type": "Feature",
      "geometry": {
        "type": "Point",
        "coordinates": [
          144.96696435,
          -37.81830513
        ]
      },
      "properties": {
        "average_wait_time": 312.97515869140625,
        "color": "#e74c3c",
        "connectivity_score": 38.05714416503906,
        "coverage_score": 20.0,
        "frequency_score": 33.0,
        "id": "1-vic:rail:FSS",
        "mode_id": 1,
        "mode_name": "Regional Train",
        "name": "Flinders Street Railway Station",
        "nearby_stops": [],
        "reliability_score": 71.42857360839844,
        "route_ids": [
          "aus:vic:vic-01-BDE:",
          "aus:vic:vic-01-TRN:"
        ]
      }
    },
    {
      "type": "Feature",
      "geometry": {
        "type": "Point",
        "coordinates": [
          144.60775752,
          -36.49502002
        ]
      },
      "properties": {
        "average_wait_time": 411.35003662109375,
        "color": "#e74c3c",
        "connectivity_score": 25.557144165039062,
        "coverage_score": 10.0,
        "frequency_score": 10.5,
        "id": "1-vic:rail:EME",
        "mode_id": 1,
        "mode_name": "Regional Train",
        "name": "Elmore Railway Station",
        "nearby_stops": [],
        "reliability_score": 71.42857360839844,
        "route_ids": [
          "aus:vic:vic-01-ECH:"
        ]
      }
    },
    {
      "type": "Feature",
      "geometry": {
        "type": "Point",
        "coordinates": [
          144.35505671,
          -38.198549
        ]
      },
      "properties": {
        "average_wait_time": 309.0862731933594,
        "color": "#f1c40f",
        "connectivity_score": 42.25714111328125,
        "coverage_score": 20.0,
        "frequency_score": 43.5,
        "id": "1-vic:rail:MAS",
        "mode_id": 1,
        "mode_name": "Regional Train",
        "name": "Marshall Railway Station",
        "nearby_stops": [],
        "reliability_score": 71.42857360839844,
        "route_ids": [
          "aus:vic:vic-01-GEL:",
          "aus:vic:vic-01-WBL:"
        ]
      }
    },
    {
      "type": "Feature",
      "geometry": {
        "type": "Point",
        "coordinates": [
          142.53884888,
          -38.38638239
        ]
      },
      "properties": {
        "average_wait_time": 337.1600036621094,
        "color": "#e74c3c",
        "connectivity_score": 25.557144165039062,
        "coverage_score": 10.0,
        "frequency_score": 10.5,
        "id": "1-vic:rail:SDP",
        "mode_id": 1,
        "mode_name": "Regional Train",
        "name": "Sherwood Park Railway Station",
        "nearby_stops": [],
        "reliability_score": 71.42857360839844,
        "route_ids": [
          "aus:vic:vic-01-WBL:"
        ]
      }
    },
    {
      "type": "Feature",
      "geometry": {
        "type": "Point",
        "coordinates": [
          147.08146945,
          -37.96704739
        ]
      },
      "properties": {
        "average_wait_time": 644.5333251953125,
        "color": "#e74c3c",
        "connectivity_score": 23.757143020629883,
        "coverage_score": 10.0,
        "frequency_score": 6.0,
        "id": "1-vic:rail:STD",
        "mode_id": 1,
        "mode_name": "Regional Train",
        "name": "Stratford Railway Station",
        "nearby_stops": [],
        "reliability_score": 71.42857360839844,
        "route_ids": [
          "aus:vic:vic-01-BDE:"
        ]
      }
    },
    {
      "type": "Feature",
      "geometry": {
        "type": "Point",
        "coordinates": [
          143.58665305,
          -38.34337792
        ]
      },
      "properties": {
        "average_wait_time": 399.75,
        "color": "#e74c3c",
        "connectivity_score": 25.557144165039062,
        "coverage_score": 10.0,
        "frequency_score": 10.5,
        "id": "1-vic:rail:COL",
        "mode_id": 1,
        "mode_name": "Regional Train",
        "name": "Colac Railway Station",
        "nearby_stops": [],
        "reliability_score": 71.42857360839844,
        "route_ids": [
          "aus:vic:vic-01-WBL:"
        ]
      }
    },
    {
      "type": "Feature",
      "geometry": {
        "type": "Point",
        "coordinates": [
          144.3549152,
          -38.14470898
        ]
      },
      "properties": {
        "average_wait_time": 305.1022033691406,
        "color": "#f1c40f",
        "connectivity_score": 45.657142639160156,
        "coverage_score": 20.0,
        "frequency_score": 52.0,
        "id": "1-vic:rail:GEL",
        "mode_id": 1,
        "mode_name": "Regional Train",
        "name": "Geelong Railway Station ",
        "nearby_stops": [],
        "reliability_score": 71.42857360839844,
        "route_ids": [
          "aus:vic:vic-01-WBL:",
          "aus:vic:vic-01-GEL:"
        ]
      }
    },
    {
      "type": "Feature",
      "geometry": {
        "type": "Point",
        "coordinates": [
          145.48637907,
          -38.08061397
        ]
      },
      "properties": {
        "average_wait_time": 314.2733459472656,
        "color": "#e74c3c",
        "connectivity_score": 36.257144927978516,
        "coverage_score": 20.0,
        "frequency_score": 28.5,
        "id": "1-vic:rail:PKM",
        "mode_id": 1,
        "mode_name": "Regional Train",
        "name": "Pakenham Railway Station",
        "nearby_stops": [],
        "reliability_score": 71.42857360839844,
        "route_ids": [
          "aus:vic:vic-01-TRN:",
          "aus:vic:vic-01-BDE:"
        ]
      }
    },
    {
      "type": "Feature",
      "geometry": {
        "type": "Point",
        "coordinates": [
          144.11332145,
          -36.0534147
        ]
      },
      "properties": {
        "average_wait_time": 661.9000244140625,
        "color": "#e74c3c",
        "connectivity_score": 23.757143020629883,
        "coverage_score": 10.0,
        "frequency_score": 6.0,
        "id": "1-vic:rail:PYD",
        "mode_id": 1,
        "mode_name": "Regional Train",
        "name": "Pyramid Railway Station",
        "nearby_stops": [],
        "reliability_score": 71.42857360839844,
        "route_ids": [
          "aus:vic:vic-01-SWL:"
        ]
      }
    },
    {
      "type": "Feature",
      "geometry": {
        "type": "Point",
        "coordinates": [
          145.22951498,
          -36.89364778
        ]
      },
      "properties": {
        "average_wait_time": 324.91668701171875,
        "color": "#e74c3c",
        "connectivity_score": 35.157142639160156,
        "coverage_score": 10.0,
        "frequency_score": 34.5,
        "id": "1-vic:rail:AVL",
        "mode_id": 1,
        "mode_name": "Regional Train",
        "name": "Avenel Railway Station",
        "nearby_stops": [],
        "reliability_score": 71.42857360839844,
        "route_ids": [
          "aus:vic:vic-01-ABY:"
        ]
      }
    },
    {
      "type": "Feature",
      "geometry": {
        "type": "Point",
        "coordinates": [
          142.47554504,
          -38.38501396
        ]
      },
      "properties": {
        "average_wait_time": 335.510009765625,
        "color": "#e74c3c",
        "connectivity_score": 27.35714340209961,
        "coverage_score": 10.0,
        "frequency_score": 15.0,
        "id": "1-vic:rail:WBL",
        "mode_id": 1,
        "mode_name": "Regional Train",
        "name": "Warrnambool Railway Station",
        "nearby_stops": [],
        "reliability_score": 71.42857360839844,
        "route_ids": [
          "aus:vic:vic-01-WBL:"
        ]
      }
    },
    {
      "type": "Feature",
      "geometry": {
        "type": "Point",
        "coordinates": [
          144.80218807,
          -37.78306529
        ]
      },
      "properties": {
        "average_wait_time": 307.8412170410156,
        "color": "#f1c40f",
        "connectivity_score": 47.35714340209961,
        "coverage_score": 30.0,
        "frequency_score": 47.5,
        "id": "1-vic:rail:ARR",
        "mode_id": 1,
        "mode_name": "Regional Train",
        "name": "Ardeer Railway Station",
        "nearby_stops": [],
        "reliability_score": 71.42857360839844,
        "route_ids": [
          "aus:vic:vic-01-ART:",
          "aus:vic:vic-01-BAT:",
          "aus:vic:vic-01-MBY:"
        ]
      }
    },
    {
      "type": "Feature",
      "geometry": {
        "type": "Point",
        "coordinates": [
          144.94330601,
          -37.6019248
        ]
      },
      "properties": {
        "average_wait_time": 341.4727478027344,
        "color": "#e74c3c",
        "connectivity_score": 29.057144165039062,
        "coverage_score": 20.0,
        "frequency_score": 10.5,
        "id": "1-vic:rail:CGB",
        "mode_id": 1,
        "mode_name": "Regional Train",
        "name": "Craigieburn Railway Station",
        "nearby_stops": [],
        "reliability_score": 71.42857360839844,
        "route_ids": [
          "aus:vic:vic-01-SER:",
          "aus:vic:vic-01-SNH:"
        ]
      }
    },
    {
      "type": "Feature",
      "geometry": {
        "type": "Point",
        "coordinates": [
          145.13772862,
          -37.02472873
        ]
      },
      "properties": {
        "average_wait_time": 315.16424560546875,
        "color": "#e74c3c",
        "connectivity_score": 39.757144927978516,
        "coverage_score": 30.0,
        "frequency_score": 28.5,
        "id": "1-vic:rail:SER",
        "mode_id": 1,
        "mode_name": "Regional Train",
        "name": "Seymour Railway Station",
        "nearby_stops": [],
        "reliability_score": 71.42857360839844,
        "route_ids": [
          "aus:vic:vic-01-ABY:",
          "aus:vic:vic-01-SNH:",
          "aus:vic:vic-01-SER:"
        ]
      }
    },
    {
      "type": "Feature",
      "geometry": {
        "type": "Point",
        "coordinates": [
          144.41440429,
          -38.02242764
        ]
      },
      "properties": {
        "average_wait_time": 305.8822326660156,
        "color": "#f1c40f",
        "connectivity_score": 42.157142639160156,
        "coverage_score": 10.0,
        "frequency_score": 52.0,
        "id": "1-vic:rail:LRA",
        "mode_id": 1,
        "mode_name": "Regional Train",
        "name": "Lara Railway Station",
        "nearby_stops": [],
        "reliability_score": 71.42857360839844,
        "route_ids": [
          "aus:vic:vic-01-GEL:"
        ]
      }
    },
    {
      "type": "Feature",
      "geometry": {
        "type": "Point",
        "coordinates": [
          145.85594693,
          -38.1364519
        ]
      },
      "properties": {
        "average_wait_time": 314.0425109863281,
        "color": "#e74c3c",
        "connectivity_score": 36.257144927978516,
        "coverage_score": 20.0,
        "frequency_score": 28.5,
        "id": "1-vic:rail:DRN",
        "mode_id": 1,
        "mode_name": "Regional Train",
        "name": "Drouin Railway Station",
        "nearby_stops": [],
        "reliability_score": 71.42857360839844,
        "route_ids": [
          "aus:vic:vic-01-BDE:",
          "aus:vic:vic-01-TRN:"
        ]
      }
    },
    {
      "type": "Feature",
      "geometry": {
        "type": "Point",
        "coordinates": [
          145.35821484,
          -36.39912828
        ]
      },
      "properties": {
        "average_wait_time": 398.0400390625,
        "color": "#e74c3c",
        "connectivity_score": 25.557144165039062,
        "coverage_score": 10.0,
        "frequency_score": 10.5,
        "id": "1-vic:rail:MPA",
        "mode_id": 1,
        "mode_name": "Regional Train",
        "name": "Mooroopna Railway Station",
        "nearby_stops": [],
        "reliability_score": 71.42857360839844,
        "route_ids": [
          "aus:vic:vic-01-SNH:"
        ]
      }
    },
    {
      "type": "Feature",
      "geometry": {
        "type": "Point",
        "coordinates": [
          144.22544803,
          -37.60429951
        ]
      },
      "properties": {
        "average_wait_time": 310.76531982421875,
        "color": "#f1c40f",
        "connectivity_score": 41.55714416503906,
        "coverage_score": 30.0,
        "frequency_score": 33.0,
        "id": "1-vic:rail:BLN",
        "mode_id": 1,
        "mode_name": "Regional Train",
        "name": "Ballan Railway Station",
        "nearby_stops": [],
        "reliability_score": 71.42857360839844,
        "route_ids": [
          "aus:vic:vic-01-BAT:",
          "aus:vic:vic-01-MBY:",
          "aus:vic:vic-01-ART:"
        ]
      }
    },
    {
      "type": "Feature",
      "geometry": {
        "type": "Point",
        "coordinates": [
          144.94151017,
          -37.80630984
        ]
      },
      "properties": {
        "average_wait_time": 332.5809326171875,
        "color": "#e74c3c",
        "connectivity_score": 29.057144165039062,
        "coverage_score": 20.0,
        "frequency_score": 10.5,
        "id": "1-vic:rail:NME",
        "mode_id": 1,
        "mode_name": "Regional Train",
        "name": "North Melbourne Railway Station",
        "nearby_stops": [],
        "reliability_score": 71.42857360839844,
        "route_ids": [
          "aus:vic:vic-01-SNH:",
          "aus:vic:vic-01-SER:"
        ]
      }
    },
    {
      "type": "Feature",
      "geometry": {
        "type": "Point",
        "coordinates": [
          145.12053436,
          -37.92468255
        ]
      },
      "properties": {
        "average_wait_time": 313.6300048828125,
        "color": "#e74c3c",
        "connectivity_score": 36.257144927978516,
        "coverage_score": 20.0,
        "frequency_score": 28.5,
        "id": "1-vic:rail:CLA",
        "mode_id": 1,
        "mode_name": "Regional Train",
        "name": "Clayton Railway Station",
        "nearby_stops": [],
        "reliability_score": 71.42857360839844,
        "route_ids": [
          "aus:vic:vic-01-TRN:",
          "aus:vic:vic-01-BDE:"
        ]
      }
    },
    {
      "type": "Feature",
      "geometry": {
        "type": "Point",
        "coordinates": [
          143.85945743,
          -37.55879148
        ]
      },
      "properties": {
        "average_wait_time": 310.4281005859375,
        "color": "#f1c40f",
        "connectivity_score": 43.95714569091797,
        "coverage_score": 30.0,
        "frequency_score": 39.0,
        "id": "1-vic:rail:BAT-V",
        "mode_id": 1,
        "mode_name": "Regional Train",
        "name": "Ballarat Railway Station",
        "nearby_stops": [],
        "reliability_score": 71.42857360839844,
        "route_ids": [
          "aus:vic:vic-01-ART:",
          "aus:vic:vic-01-MBY:",
          "aus:vic:vic-01-BAT:"
        ]
      }
    },
    {
      "type": "Feature",
      "geometry": {
        "type": "Point",
        "coordinates": [
          146.78696637,
          -38.15640367
        ]
      },
      "properties": {
        "average_wait_time": 633.2000122070312,
        "color": "#e74c3c",
        "connectivity_score": 23.757143020629883,
        "coverage_score": 10.0,
        "frequency_score": 6.0,
        "id": "1-vic:rail:ROE",
        "mode_id": 1,
        "mode_name": "Regional Train",
        "name": "Rosedale Railway Station",
        "nearby_stops": [],
        "reliability_score": 71.42857360839844,
        "route_ids": [
          "aus:vic:vic-01-BDE:"
        ]
      }
    },
    {
      "type": "Feature",
      "geometry": {
        "type": "Point",
        "coordinates": [
          144.99016426,
          -37.82407446
        ]
      },
      "properties": {
        "average_wait_time": 315.2033386230469,
        "color": "#e74c3c",
        "connectivity_score": 36.257144927978516,
        "coverage_score": 20.0,
        "frequency_score": 28.5,
        "id": "1-vic:rail:RMD",
        "mode_id": 1,
        "mode_name": "Regional Train",
        "name": "Richmond Railway Station",
        "nearby_stops": [],
        "reliability_score": 71.42857360839844,
        "route_ids": [
          "aus:vic:vic-01-TRN:",
          "aus:vic:vic-01-BDE:"
        ]
      }
    },
    {
      "type": "Feature",
      "geometry": {
        "type": "Point",
        "coordinates": [
          143.38238116,
          -37.42762724
        ]
      },
      "properties": {
        "average_wait_time": 369.6700134277344,
        "color": "#e74c3c",
        "connectivity_score": 25.557144165039062,
        "coverage_score": 10.0,
        "frequency_score": 10.5,
        "id": "1-vic:rail:BET",
        "mode_id": 1,
        "mode_name": "Regional Train",
        "name": "Beaufort Railway Station",
        "nearby_stops": [],
        "reliability_score": 71.42857360839844,
        "route_ids": [
          "aus:vic:vic-01-ART:"
        ]
      }
    },
    {
      "type": "Feature",
      "geometry": {
        "type": "Point",
        "coordinates": [
          144.30683114,
          -38.21580573
        ]
      },
      "properties": {
        "average_wait_time": 308.3348693847656,
        "color": "#f1c40f",
        "connectivity_score": 42.25714111328125,
        "coverage_score": 20.0,
        "frequency_score": 43.5,
        "id": "1-vic:rail:WPP",
        "mode_id": 1,
        "mode_name": "Regional Train",
        "name": "Waurn Ponds Railway Station",
        "nearby_stops": [],
        "reliability_score": 71.42857360839844,
        "route_ids": [
          "aus:vic:vic-01-GEL:",
          "aus:vic:vic-01-WBL:"
        ]
      }
    },
    {
      "type": "Feature",
      "geometry": {
        "type": "Point",
        "coordinates": [
          142.93691176,
          -37.28224082
        ]
      },
      "properties": {
        "average_wait_time": 369.6700134277344,
        "color": "#e74c3c",
        "connectivity_score": 25.557144165039062,
        "coverage_score": 10.0,
        "frequency_score": 10.5,
        "id": "1-vic:rail:ART",
        "mode_id": 1,
        "mode_name": "Regional Train",
        "name": "Ararat Railway Station",
        "nearby_stops": [],
        "reliability_score": 71.42857360839844,
        "route_ids": [
          "aus:vic:vic-01-ART:"
        ]
      }
    },
    {
      "type": "Feature",
      "geometry": {
        "type": "Point",
        "coordinates": [
          145.00535827,
          -37.41653632
        ]
      },
      "properties": {
        "average_wait_time": 316.42828369140625,
        "color": "#e74c3c",
        "connectivity_score": 35.657142639160156,
        "coverage_score": 20.0,
        "frequency_score": 27.0,
        "id": "1-vic:rail:WAN",
        "mode_id": 1,
        "mode_name": "Regional Train",
        "name": "Wallan Railway Station",
        "nearby_stops": [],
        "reliability_score": 71.42857360839844,
        "route_ids": [
          "aus:vic:vic-01-SNH:",
          "aus:vic:vic-01-SER:"
        ]
      }
    },
    {
      "type": "Feature",
      "geometry": {
        "type": "Point",
        "coordinates": [
          144.56139685,
          -37.42357331
        ]
      },
      "properties": {
        "average_wait_time": 315.95501708984375,
        "color": "#e74c3c",
        "connectivity_score": 33.85714340209961,
        "coverage_score": 20.0,
        "frequency_score": 22.5,
        "id": "1-vic:rail:MDN",
        "mode_id": 1,
        "mode_name": "Regional Train",
        "name": "Macedon Railway Station",
        "nearby_stops": [],
        "reliability_score": 71.42857360839844,
        "route_ids": [
          "aus:vic:vic-01-BGO:",
          "aus:vic:vic-01-ECH:"
        ]
      }
    },
    {
      "type": "Feature",
      "geometry": {
        "type": "Point",
        "coordinates": [
          144.24899016,
          -36.79483364
        ]
      },
      "properties": {
        "average_wait_time": 316.2637939453125,
        "color": "#e74c3c",
        "connectivity_score": 37.35714340209961,
        "coverage_score": 30.0,
        "frequency_score": 22.5,
        "id": "1-vic:rail:KFT",
        "mode_id": 1,
        "mode_name": "Regional Train",
        "name": "Kangaroo Flat Railway Station",
        "nearby_stops": [],
        "reliability_score": 71.42857360839844,
        "route_ids": [
          "aus:vic:vic-01-SWL:",
          "aus:vic:vic-01-ECH:",
          "aus:vic:vic-01-BGO:"
        ]
      }
    },
    {
      "type": "Feature",
      "geometry": {
        "type": "Point",
        "coordinates": [
          143.70564034,
          -37.17289923
        ]
      },
      "properties": {
        "average_wait_time": 642.800048828125,
        "color": "#e74c3c",
        "connectivity_score": 23.757143020629883,
        "coverage_score": 10.0,
        "frequency_score": 6.0,
        "id": "1-vic:rail:TAT",
        "mode_id": 1,
        "mode_name": "Regional Train",
        "name": "Talbot Railway Station",
        "nearby_stops": [],
        "reliability_score": 71.42857360839844,
        "route_ids": [
          "aus:vic:vic-01-MBY:"
        ]
      }
    },
    {
      "type": "Feature",
      "geometry": {
        "type": "Point",
        "coordinates": [
          144.77108058,
          -37.77728102
        ]
      },
      "properties": {
        "average_wait_time": 303.408935546875,
        "color": "#f1c40f",
        "connectivity_score": 56.05714416503906,
        "coverage_score": 40.0,
        "frequency_score": 60.5,
        "id": "1-vic:rail:DEK",
        "mode_id": 1,
        "mode_name": "Regional Train",
        "name": "Deer Park Railway Station",
        "nearby_stops": [],
        "reliability_score": 71.42857360839844,
        "route_ids": [
          "aus:vic:vic-01-MBY:",
          "aus:vic:vic-01-ART:",
          "aus:vic:vic-01-GEL:",
          "aus:vic:vic-01-BAT:"
        ]
      }
    },
    {
      "type": "Feature",
      "geometry": {
        "type": "Point",
        "coordinates": [
          146.61137475,
          -36.15563663
        ]
      },
      "properties": {
        "average_wait_time": 439.66668701171875,
        "color": "#e74c3c",
        "connectivity_score": 25.557144165039062,
        "coverage_score": 10.0,
        "frequency_score": 10.5,
        "id": "1-vic:rail:CHI",
        "mode_id": 1,
        "mode_name": "Regional Train",
        "name": "Chiltern Railway Station",
        "nearby_stops": [],
        "reliability_score": 71.42857360839844,
        "route_ids": [
          "aus:vic:vic-01-ABY:"
        ]
      }
    },
    {
      "type": "Feature",
      "geometry": {
        "type": "Point",
        "coordinates": [
          144.60835702,
          -37.87252742
        ]
      },
      "properties": {
        "average_wait_time": 305.25970458984375,
        "color": "#f1c40f",
        "connectivity_score": 43.95714569091797,
        "coverage_score": 10.0,
        "frequency_score": 56.5,
        "id": "1-vic:rail:WVL",
        "mode_id": 1,
        "mode_name": "Regional Train",
        "name": "Wyndham Vale Railway Station",
        "nearby_stops": [],
        "reliability_score": 71.42857360839844,
        "route_ids": [
          "aus:vic:vic-01-GEL:"
        ]
      }
    },
    {
      "type": "Feature",
      "geometry": {
        "type": "Point",
        "coordinates": [
          144.60410782,
          -37.71254554
        ]
      },
      "properties": {
        "average_wait_time": 307.6031188964844,
        "color": "#f1c40f",
        "connectivity_score": 47.35714340209961,
        "coverage_score": 30.0,
        "frequency_score": 47.5,
        "id": "1-vic:rail:TLN",
        "mode_id": 1,
        "mode_name": "Regional Train",
        "name": "Cobblebank Railway Station",
        "nearby_stops": [],
        "reliability_score": 71.42857360839844,
        "route_ids": [
          "aus:vic:vic-01-BAT:",
          "aus:vic:vic-01-MBY:",
          "aus:vic:vic-01-ART:"
        ]
      }
    },
    {
      "type": "Feature",
      "geometry": {
        "type": "Point",
        "coordinates": [
          145.02641544,
          -37.3546771
        ]
      },
      "properties": {
        "average_wait_time": 317.21405029296875,
        "color": "#e74c3c",
        "connectivity_score": 33.85714340209961,
        "coverage_score": 20.0,
        "frequency_score": 22.5,
        "id": "1-vic:rail:WDG",
        "mode_id": 1,
        "mode_name": "Regional Train",
        "name": "Wandong Railway Station",
        "nearby_stops": [],
        "reliability_score": 71.42857360839844,
        "route_ids": [
          "aus:vic:vic-01-SER:",
          "aus:vic:vic-01-SNH:"
        ]
      }
    },
    {
      "type": "Feature",
      "geometry": {
        "type": "Point",
        "coordinates": [
          145.02824986,
          -37.37172322
        ]
      },
      "properties": {
        "average_wait_time": 322.4305725097656,
        "color": "#e74c3c",
        "connectivity_score": 33.85714340209961,
        "coverage_score": 20.0,
        "frequency_score": 22.5,
        "id": "1-vic:rail:HCJ",
        "mode_id": 1,
        "mode_name": "Regional Train",
        "name": "Heathcote Junction Railway Station",
        "nearby_stops": [],
        "reliability_score": 71.42857360839844,
        "route_ids": [
          "aus:vic:vic-01-SER:",
          "aus:vic:vic-01-SNH:"
        ]
      }
    },
    {
      "type": "Feature",
      "geometry": {
        "type": "Point",
        "coordinates": [
          144.95277706,
          -37.8186631
        ]
      },
      "properties": {
        "average_wait_time": 301.28277587890625,
        "color": "#2ecc71",
        "connectivity_score": 80.25714111328125,
        "coverage_score": 100.0,
        "frequency_score": 68.5,
        "id": "1-vic:rail:SSS",
        "mode_id": 1,
        "mode_name": "Regional Train",
        "name": "Southern Cross Railway Station",
        "nearby_stops": [],
        "reliability_score": 71.42857360839844,
        "route_ids": [
          "aus:vic:vic-01-TRN:",
          "aus:vic:vic-01-BDE:",
          "aus:vic:vic-01-ABY:",
          "aus:vic:vic-01-ECH:",
          "aus:vic:vic-01-SNH:",
          "aus:vic:vic-01-WBL:",
          "aus:vic:vic-01-ART:",
          "aus:vic:vic-01-BAT:",
          "aus:vic:vic-01-BGO:",
          "aus:vic:vic-01-GEL:",
          "aus:vic:vic-01-SER:",
          "aus:vic:vic-01-SWL:",
          "aus:vic:vic-01-MBY:"
        ]
      }
    },
    {
      "type": "Feature",
      "geometry": {
        "type": "Point",
        "coordinates": [
          143.92442509,
          -35.73312162
        ]
      },
      "properties": {
        "average_wait_time": 631.800048828125,
        "color": "#e74c3c",
        "connectivity_score": 23.757143020629883,
        "coverage_score": 10.0,
        "frequency_score": 6.0,
        "id": "1-vic:rail:KER",
        "mode_id": 1,
        "mode_name": "Regional Train",
        "name": "Kerang Railway Station",
        "nearby_stops": [],
        "reliability_score": 71.42857360839844,
        "route_ids": [
          "aus:vic:vic-01-SWL:"
        ]
      }
    }
  ]
}